[{"OBJECT_NAME":"STARLINK-2504","OBJECT_ID":"2021-036BE","EPOCH":"2026-03-10T00:00:02.999808","MEAN_MOTION":15.25942094,"ECCENTRICITY":9.724e-5,"INCLINATION":53.1409,"RA_OF_ASC_NODE":99.5198,"ARG_OF_PERICENTER":86.8504,"MEAN_ANOMALY":190.4785,"EPHEMERIS_TYPE":0,"CLASSIFICATION_TYPE":"U","NORAD_CAT_ID":48328,"ELEMENT_SET_NO":999,"REV_AT_EPOCH":579,"BSTAR":0.065566196,"MEAN_MOTION_DOT":0.01878352,"MEAN_MOTION_DDOT":0},{"OBJECT_NAME":"KUIPER-00220","OBJECT_ID":"2026-030T","EPOCH":"2026-03-09T17:06:26.319168","MEAN_MOTION":15.34795258,"ECCENTRICITY":0.00090502,"INCLINATION":51.8809,"RA_OF_ASC_NODE":219.2195,"ARG_OF_PERICENTER":53.923,"MEAN_ANOMALY":306.2592,"EPHEMERIS_TYPE":0,"CLASSIFICATION_TYPE":"U","NORAD_CAT_ID":67781,"ELEMENT_SET_NO":999,"REV_AT_EPOCH":509,"BSTAR":0.0010498333,"MEAN_MOTION_DOT":0.00035785,"MEAN_MOTION_DDOT":0}]
